{
    "CCSDS_OMM_VERS": "3.0",
    "COMMENT": "GENERATED VIA SPACE-TRACK.ORG API",
    "CREATION_DATE": "2025-05-22T22:56:18",
    "ORIGINATOR": "18 SPCS",
    "OBJECT_NAME": "BEIDOU 3M20",
    "OBJECT_ID": "2019-090B",
    "CENTER_NAME": "EARTH",
    "REF_FRAME": "TEME",
    "TIME_SYSTEM": "UTC",
    "MEAN_ELEMENT_THEORY": "SGP4",
    "EPOCH": "2025-05-22T16:37:52.976064",
    "MEAN_MOTION": "1.86231332",
    "ECCENTRICITY": "0.00166690",
    "INCLINATION": "56.2157",
    "RA_OF_ASC_NODE": "75.7675",
    "ARG_OF_PERICENTER": "304.4078",
    "MEAN_ANOMALY": "232.6584",
    "EPHEMERIS_TYPE": "0",
    "CLASSIFICATION_TYPE": "U",
    "NORAD_CAT_ID": "44865",
    "ELEMENT_SET_NO": "999",
    "REV_AT_EPOCH": "3693",
    "BSTAR": "0.00000000000000",
    "MEAN_MOTION_DOT": "-0.00000023",
    "MEAN_MOTION_DDOT": "0.0000000000000",
    "SEMIMAJOR_AXIS": "27906.155",
    "PERIOD": "773.232",
    "APOAPSIS": "21574.537",
    "PERIAPSIS": "21481.504",
    "OBJECT_TYPE": "PAYLOAD",
    "RCS_SIZE": "LARGE",
    "COUNTRY_CODE": "PRC",
    "LAUNCH_DATE": "2019-12-16",
    "SITE": "XSC",
    "DECAY_DATE": null,
    "FILE": "4736454",
    "GP_ID": "288164350",
    "TLE_LINE0": "0 BEIDOU 3M20",
    "TLE_LINE1": "1 44865U 19090B   25142.69297426 -.00000023  00000-0  00000+0 0  9990",
    "TLE_LINE2": "2 44865  56.2157  75.7675 0016669 304.4078 232.6584  1.86231332 36936"
}